ONEWEB-0379             
1 49305U 21090AC  24116.92761970 -.00000106  00000+0 -32157-3 0  9997
2 49305  87.8927  85.3587 0001832  84.9718 275.1621 13.14504699124790
ONEWEB-0380             
1 49306U 21090AD  24116.98327627  .00000109  00000+0  24070-3 0  9997
2 49306  87.9109 100.6501 0002102  89.6503 270.4871 13.19728166124535
ONEWEB-0381             
1 49307U 21090AE  24116.89371988  .00000070  00000+0  14076-3 0  9999
2 49307  87.9191  70.0931 0002100  81.1130 279.0241 13.20772084126566
ONEWEB-0382             
1 49308U 21090AF  24116.95684007  .00000177  00000+0  40311-3 0  9995
2 49308  87.9192  70.0778 0001912  66.3309 293.8025 13.20773820127878
ONEWEB-0383             
1 49309U 21090AG  24116.99739721  .00000298  00000+0  76802-3 0  9992
2 49309  87.8924  85.3342 0001790  82.9555 277.1778 13.14502139126121
ONEWEB-0384             
1 49310U 21090AH  24116.95366795  .00000131  00000+0  29149-3 0  9995
2 49310  87.9194  70.0886 0001905  69.1710 290.9628 13.20771551127889
ONEWEB-0385             
1 49311U 21090AJ  24116.94895342  .00000175  00000+0  39815-3 0  9999
2 49311  87.9193  70.0914 0002005  73.5564 286.5790 13.20773571126546
ONEWEB-0386             
1 49312U 21090AK  24116.89055983  .00000110  00000+0  23809-3 0  9998
2 49312  87.9188  70.1014 0001815  78.9575 281.1762 13.20772740126550
