<?xml version="1.0" encoding="UTF-8"?>
<ndm xmlns:xsi="http://www.w3.org/2001/XMLSchema-instance" xsi:noNamespaceSchemaLocation="https://sanaregistry.org/r/ndmxml_unqualified/ndmxml-2.0.0-master-2.0.xsd">
<omm id="CCSDS_OMM_VERS" version="2.0">
<header><CREATION_DATE/><ORIGINATOR/></header><body><segment><metadata><OBJECT_NAME>ONEWEB-0379</OBJECT_NAME><OBJECT_ID>2021-090AC</OBJECT_ID><CENTER_NAME>EARTH</CENTER_NAME><REF_FRAME>TEME</REF_FRAME><TIME_SYSTEM>UTC</TIME_SYSTEM><MEAN_ELEMENT_THEORY>SGP4</MEAN_ELEMENT_THEORY></metadata><data><meanElements><EPOCH>2024-04-25T22:15:46.342080</EPOCH><MEAN_MOTION>13.14504699</MEAN_MOTION><ECCENTRICITY>.0001832</ECCENTRICITY><INCLINATION>87.8927</INCLINATION><RA_OF_ASC_NODE>85.3587</RA_OF_ASC_NODE><ARG_OF_PERICENTER>84.9718</ARG_OF_PERICENTER><MEAN_ANOMALY>275.1621</MEAN_ANOMALY></meanElements><tleParameters><EPHEMERIS_TYPE>0</EPHEMERIS_TYPE><CLASSIFICATION_TYPE>U</CLASSIFICATION_TYPE><NORAD_CAT_ID>49305</NORAD_CAT_ID><ELEMENT_SET_NO>999</ELEMENT_SET_NO><REV_AT_EPOCH>12479</REV_AT_EPOCH><BSTAR>-.32157E-3</BSTAR><MEAN_MOTION_DOT>-.106E-5</MEAN_MOTION_DOT><MEAN_MOTION_DDOT>0</MEAN_MOTION_DDOT></tleParameters></data></segment></body></omm>
<omm id="CCSDS_OMM_VERS" version="2.0">
<header><CREATION_DATE/><ORIGINATOR/></header><body><segment><metadata><OBJECT_NAME>ONEWEB-0380</OBJECT_NAME><OBJECT_ID>2021-090AD</OBJECT_ID><CENTER_NAME>EARTH</CENTER_NAME><REF_FRAME>TEME</REF_FRAME><TIME_SYSTEM>UTC</TIME_SYSTEM><MEAN_ELEMENT_THEORY>SGP4</MEAN_ELEMENT_THEORY></metadata><data><meanElements><EPOCH>2024-04-25T23:35:55.069728</EPOCH><MEAN_MOTION>13.19728166</MEAN_MOTION><ECCENTRICITY>.0002102</ECCENTRICITY><INCLINATION>87.9109</INCLINATION><RA_OF_ASC_NODE>100.6501</RA_OF_ASC_NODE><ARG_OF_PERICENTER>89.6503</ARG_OF_PERICENTER><MEAN_ANOMALY>270.4871</MEAN_ANOMALY></meanElements><tleParameters><EPHEMERIS_TYPE>0</EPHEMERIS_TYPE><CLASSIFICATION_TYPE>U</CLASSIFICATION_TYPE><NORAD_CAT_ID>49306</NORAD_CAT_ID><ELEMENT_SET_NO>999</ELEMENT_SET_NO><REV_AT_EPOCH>12453</REV_AT_EPOCH><BSTAR>.2407E-3</BSTAR><MEAN_MOTION_DOT>.109E-5</MEAN_MOTION_DOT><MEAN_MOTION_DDOT>0</MEAN_MOTION_DDOT></tleParameters></data></segment></body></omm>
<omm id="CCSDS_OMM_VERS" version="2.0">
<header><CREATION_DATE/><ORIGINATOR/></header><body><segment><metadata><OBJECT_NAME>ONEWEB-0381</OBJECT_NAME><OBJECT_ID>2021-090AE</OBJECT_ID><CENTER_NAME>EARTH</CENTER_NAME><REF_FRAME>TEME</REF_FRAME><TIME_SYSTEM>UTC</TIME_SYSTEM><MEAN_ELEMENT_THEORY>SGP4</MEAN_ELEMENT_THEORY></metadata><data><meanElements><EPOCH>2024-04-25T21:26:57.397632</EPOCH><MEAN_MOTION>13.20772084</MEAN_MOTION><ECCENTRICITY>.00021</ECCENTRICITY><INCLINATION>87.9191</INCLINATION><RA_OF_ASC_NODE>70.0931</RA_OF_ASC_NODE><ARG_OF_PERICENTER>81.1130</ARG_OF_PERICENTER><MEAN_ANOMALY>279.0241</MEAN_ANOMALY></meanElements><tleParameters><EPHEMERIS_TYPE>0</EPHEMERIS_TYPE><CLASSIFICATION_TYPE>U</CLASSIFICATION_TYPE><NORAD_CAT_ID>49307</NORAD_CAT_ID><ELEMENT_SET_NO>999</ELEMENT_SET_NO><REV_AT_EPOCH>12656</REV_AT_EPOCH><BSTAR>.14076E-3</BSTAR><MEAN_MOTION_DOT>.7E-6</MEAN_MOTION_DOT><MEAN_MOTION_DDOT>0</MEAN_MOTION_DDOT></tleParameters></data></segment></body></omm>
<omm id="CCSDS_OMM_VERS" version="2.0">
<header><CREATION_DATE/><ORIGINATOR/></header><body><segment><metadata><OBJECT_NAME>ONEWEB-0382</OBJECT_NAME><OBJECT_ID>2021-090AF</OBJECT_ID><CENTER_NAME>EARTH</CENTER_NAME><REF_FRAME>TEME</REF_FRAME><TIME_SYSTEM>UTC</TIME_SYSTEM><MEAN_ELEMENT_THEORY>SGP4</MEAN_ELEMENT_THEORY></metadata><data><meanElements><EPOCH>2024-04-25T22:57:50.982048</EPOCH><MEAN_MOTION>13.20773820</MEAN_MOTION><ECCENTRICITY>.0001912</ECCENTRICITY><INCLINATION>87.9192</INCLINATION><RA_OF_ASC_NODE>70.0778</RA_OF_ASC_NODE><ARG_OF_PERICENTER>66.3309</ARG_OF_PERICENTER><MEAN_ANOMALY>293.8025</MEAN_ANOMALY></meanElements><tleParameters><EPHEMERIS_TYPE>0</EPHEMERIS_TYPE><CLASSIFICATION_TYPE>U</CLASSIFICATION_TYPE><NORAD_CAT_ID>49308</NORAD_CAT_ID><ELEMENT_SET_NO>999</ELEMENT_SET_NO><REV_AT_EPOCH>12787</REV_AT_EPOCH><BSTAR>.40311E-3</BSTAR><MEAN_MOTION_DOT>.177E-5</MEAN_MOTION_DOT><MEAN_MOTION_DDOT>0</MEAN_MOTION_DDOT></tleParameters></data></segment></body></omm>
<omm id="CCSDS_OMM_VERS" version="2.0">
<header><CREATION_DATE/><ORIGINATOR/></header><body><segment><metadata><OBJECT_NAME>ONEWEB-0383</OBJECT_NAME><OBJECT_ID>2021-090AG</OBJECT_ID><CENTER_NAME>EARTH</CENTER_NAME><REF_FRAME>TEME</REF_FRAME><TIME_SYSTEM>UTC</TIME_SYSTEM><MEAN_ELEMENT_THEORY>SGP4</MEAN_ELEMENT_THEORY></metadata><data><meanElements><EPOCH>2024-04-25T23:56:15.118944</EPOCH><MEAN_MOTION>13.14502139</MEAN_MOTION><ECCENTRICITY>.000179</ECCENTRICITY><INCLINATION>87.8924</INCLINATION><RA_OF_ASC_NODE>85.3342</RA_OF_ASC_NODE><ARG_OF_PERICENTER>82.9555</ARG_OF_PERICENTER><MEAN_ANOMALY>277.1778</MEAN_ANOMALY></meanElements><tleParameters><EPHEMERIS_TYPE>0</EPHEMERIS_TYPE><CLASSIFICATION_TYPE>U</CLASSIFICATION_TYPE><NORAD_CAT_ID>49309</NORAD_CAT_ID><ELEMENT_SET_NO>999</ELEMENT_SET_NO><REV_AT_EPOCH>12612</REV_AT_EPOCH><BSTAR>.76802E-3</BSTAR><MEAN_MOTION_DOT>.298E-5</MEAN_MOTION_DOT><MEAN_MOTION_DDOT>0</MEAN_MOTION_DDOT></tleParameters></data></segment></body></omm>
<omm id="CCSDS_OMM_VERS" version="2.0">
<header><CREATION_DATE/><ORIGINATOR/></header><body><segment><metadata><OBJECT_NAME>ONEWEB-0384</OBJECT_NAME><OBJECT_ID>2021-090AH</OBJECT_ID><CENTER_NAME>EARTH</CENTER_NAME><REF_FRAME>TEME</REF_FRAME><TIME_SYSTEM>UTC</TIME_SYSTEM><MEAN_ELEMENT_THEORY>SGP4</MEAN_ELEMENT_THEORY></metadata><data><meanElements><EPOCH>2024-04-25T22:53:16.910880</EPOCH><MEAN_MOTION>13.20771551</MEAN_MOTION><ECCENTRICITY>.0001905</ECCENTRICITY><INCLINATION>87.9194</INCLINATION><RA_OF_ASC_NODE>70.0886</RA_OF_ASC_NODE><ARG_OF_PERICENTER>69.1710</ARG_OF_PERICENTER><MEAN_ANOMALY>290.9628</MEAN_ANOMALY></meanElements><tleParameters><EPHEMERIS_TYPE>0</EPHEMERIS_TYPE><CLASSIFICATION_TYPE>U</CLASSIFICATION_TYPE><NORAD_CAT_ID>49310</NORAD_CAT_ID><ELEMENT_SET_NO>999</ELEMENT_SET_NO><REV_AT_EPOCH>12788</REV_AT_EPOCH><BSTAR>.29149E-3</BSTAR><MEAN_MOTION_DOT>.131E-5</MEAN_MOTION_DOT><MEAN_MOTION_DDOT>0</MEAN_MOTION_DDOT></tleParameters></data></segment></body></omm>
<omm id="CCSDS_OMM_VERS" version="2.0">
<header><CREATION_DATE/><ORIGINATOR/></header><body><segment><metadata><OBJECT_NAME>ONEWEB-0385</OBJECT_NAME><OBJECT_ID>2021-090AJ</OBJECT_ID><CENTER_NAME>EARTH</CENTER_NAME><REF_FRAME>TEME</REF_FRAME><TIME_SYSTEM>UTC</TIME_SYSTEM><MEAN_ELEMENT_THEORY>SGP4</MEAN_ELEMENT_THEORY></metadata><data><meanElements><EPOCH>2024-04-25T22:46:29.575488</EPOCH><MEAN_MOTION>13.20773571</MEAN_MOTION><ECCENTRICITY>.0002005</ECCENTRICITY><INCLINATION>87.9193</INCLINATION><RA_OF_ASC_NODE>70.0914</RA_OF_ASC_NODE><ARG_OF_PERICENTER>73.5564</ARG_OF_PERICENTER><MEAN_ANOMALY>286.5790</MEAN_ANOMALY></meanElements><tleParameters><EPHEMERIS_TYPE>0</EPHEMERIS_TYPE><CLASSIFICATION_TYPE>U</CLASSIFICATION_TYPE><NORAD_CAT_ID>49311</NORAD_CAT_ID><ELEMENT_SET_NO>999</ELEMENT_SET_NO><REV_AT_EPOCH>12654</REV_AT_EPOCH><BSTAR>.39815E-3</BSTAR><MEAN_MOTION_DOT>.175E-5</MEAN_MOTION_DOT><MEAN_MOTION_DDOT>0</MEAN_MOTION_DDOT></tleParameters></data></segment></body></omm>
<omm id="CCSDS_OMM_VERS" version="2.0">
<header><CREATION_DATE/><ORIGINATOR/></header><body><segment><metadata><OBJECT_NAME>ONEWEB-0386</OBJECT_NAME><OBJECT_ID>2021-090AK</OBJECT_ID><CENTER_NAME>EARTH</CENTER_NAME><REF_FRAME>TEME</REF_FRAME><TIME_SYSTEM>UTC</TIME_SYSTEM><MEAN_ELEMENT_THEORY>SGP4</MEAN_ELEMENT_THEORY></metadata><data><meanElements><EPOCH>2024-04-25T21:22:24.369312</EPOCH><MEAN_MOTION>13.20772740</MEAN_MOTION><ECCENTRICITY>.0001815</ECCENTRICITY><INCLINATION>87.9188</INCLINATION><RA_OF_ASC_NODE>70.1014</RA_OF_ASC_NODE><ARG_OF_PERICENTER>78.9575</ARG_OF_PERICENTER><MEAN_ANOMALY>281.1762</MEAN_ANOMALY></meanElements><tleParameters><EPHEMERIS_TYPE>0</EPHEMERIS_TYPE><CLASSIFICATION_TYPE>U</CLASSIFICATION_TYPE><NORAD_CAT_ID>49312</NORAD_CAT_ID><ELEMENT_SET_NO>999</ELEMENT_SET_NO><REV_AT_EPOCH>12655</REV_AT_EPOCH><BSTAR>.23809E-3</BSTAR><MEAN_MOTION_DOT>.11E-5</MEAN_MOTION_DOT><MEAN_MOTION_DDOT>0</MEAN_MOTION_DDOT></tleParameters></data></segment></body></omm>

</ndm>
